STARLINK-30986          
1 58492U 23186V   26068.00853274  .00000713  00000+0  36268-4 0  9998
2 58492  43.0032  67.3550 0001322 276.4823  83.5877 15.26746052125787
TRANSPORTER-13 OBJECT AH
1 63241U 25052AH  26068.64880921  .00014108  00000+0  55931-3 0  9999
2 63241  97.3962 323.1443 0008070 138.7508 221.4341 15.25468797 54753
